NORAD_CAT_ID,OBJECT_NAME,OBJECT_TYPE,EPOCH,MEAN_MOTION,ECCENTRICITY,INCLINATION,RA_OF_ASC_NODE,ARG_OF_PERICENTER,MEAN_ANOMALY,BSTAR,MEAN_MOTION_DOT,MEAN_MOTION_DDOT,TLE_LINE0,TLE_LINE1,TLE_LINE2,SEMIMAJOR_AXIS,PERIOD,APOGEE,PERIGEE,DECAYED
52705.0,STARLINK-3844,PAYLOAD,2024-04-23 19:44:02,15.08833288,0.0001376,53.2177,328.6045,83.5419,276.573,7.2177e-05,8.61e-06,0.0,0 STARLINK-3844,1 52705U 22053BB  24114.82225375  .00000861  00000-0  72177-4 0  9990,2 52705  53.2177 328.6045 0001376  83.5419 276.5730 15.08833288107926,6917.901,95.438,540.718,538.814,0.0
52705.0,STARLINK-3844,PAYLOAD,2024-04-24 00:30:11,15.08837787,0.000146,53.2181,327.7105,92.5379,267.578,0.00016992,2.417e-05,0.0,0 STARLINK-3844,1 52705U 22053BB  24115.02097111  .00002417  00000-0  16992-3 0  9999,2 52705  53.2181 327.7105 0001460  92.5379 267.5780 15.08837787107526,6917.887,95.438,540.762,538.742,0.0
52705.0,STARLINK-3844,PAYLOAD,2024-04-24 19:34:49,15.088443,0.0001435,53.218,324.142,102.2993,257.816,0.00019208,2.771e-05,0.0,0 STARLINK-3844,1 52705U 22053BB  24115.81585057  .00002771  00000-0  19208-3 0  9993,2 52705  53.2180 324.1420 0001435 102.2993 257.8160 15.08844300108073,6917.867,95.437,540.725,538.74,0.0
52705.0,STARLINK-3844,PAYLOAD,2024-04-25 00:20:58,15.08845327,0.0001572,53.2185,323.2503,111.2152,248.9008,0.00020348,2.952e-05,0.0,0 STARLINK-3844,1 52705U 22053BB  24116.01457006  .00002952  00000-0  20348-3 0  9996,2 52705  53.2185 323.2503 0001572 111.2152 248.9008 15.08845327108105,6917.864,95.437,540.817,538.642,0.0
52705.0,STARLINK-3844,PAYLOAD,2024-04-25 21:00:59,15.08844711,0.0001412,53.2179,319.3848,72.8899,287.2248,0.00017995,2.577e-05,0.0,0 STARLINK-3844,1 52705U 22053BB  24116.87569246  .00002577  00000-0  17995-3 0  9997,2 52705  53.2179 319.3848 0001412  72.8899 287.2248 15.08844711107803,6917.866,95.437,540.708,538.754,0.0
52705.0,STARLINK-3844,PAYLOAD,2024-04-26 12:54:51,15.08839841,0.0001346,53.2182,316.4251,59.9893,300.1233,7.5688e-05,9.17e-06,0.0,0 STARLINK-3844,1 52705U 22053BB  24117.53809326  .00000917  00000-0  75688-4 0  9997,2 52705  53.2182 316.4251 0001346  59.9893 300.1233 15.08839841108335,6917.881,95.438,540.677,538.815,0.0
52705.0,STARLINK-3844,PAYLOAD,2024-04-26 20:51:46,15.08854572,0.0001359,53.2184,314.9288,113.4697,246.6438,0.00022065,3.227e-05,0.0,0 STARLINK-3844,1 52705U 22053BB  24117.86928536  .00003227  00000-0  22065-3 0  9995,2 52705  53.2184 314.9288 0001359 113.4697 246.6438 15.08854572108386,6917.836,95.437,540.641,538.761,0.0
52705.0,STARLINK-3844,PAYLOAD,2024-04-27 06:24:05,15.08847469,0.0001288,53.2179,313.1478,102.5105,257.6032,7.7424e-05,9.45e-06,0.0,0 STARLINK-3844,1 52705U 22053BB  24118.26672838  .00000945  00000-0  77424-4 0  9995,2 52705  53.2179 313.1478 0001288 102.5105 257.6032 15.08847469108015,6917.858,95.437,540.614,538.832,0.0
52705.0,STARLINK-3844,PAYLOAD,2024-04-27 19:07:10,15.08842224,0.0001122,53.217,310.7679,99.2836,260.8283,6.5747e-05,7.59e-06,0.0,0 STARLINK-3844,1 52705U 22053BB  24118.79665241  .00000759  00000-0  65747-4 0  9991,2 52705  53.2170 310.7679 0001122  99.2836 260.8283 15.08842224108098,6917.874,95.437,540.515,538.962,0.0
52705.0,STARLINK-3844,PAYLOAD,2024-04-27 22:17:56,15.08850405,0.0001224,53.2173,310.1715,106.3323,253.7804,0.00011842,1.598e-05,0.0,0 STARLINK-3844,1 52705U 22053BB  24118.92912757  .00001598  00000-0  11842-3 0  9991,2 52705  53.2173 310.1715 0001224 106.3323 253.7804 15.08850405108540,6917.849,95.437,540.56,538.867,0.0
52705.0,STARLINK-3844,PAYLOAD,2024-04-28 06:14:53,15.08834933,0.0001418,53.2168,308.6906,68.6875,291.4269,-2.1875e-05,-6.36e-06,0.0,0 STARLINK-3844,1 52705U 22053BB  24119.26033771 -.00000636  00000-0 -21875-4 0  9991,2 52705  53.2168 308.6906 0001418  68.6875 291.4269 15.08834933108165,6917.896,95.438,540.742,538.78,0.0
52705.0,STARLINK-3844,PAYLOAD,2024-04-28 22:08:44,15.08839913,0.000128,53.2187,305.7122,93.6571,266.4568,-4.4656e-05,-9.99e-06,0.0,0 STARLINK-3844,1 52705U 22053BB  24119.92273957 -.00000999  00000-0 -44656-4 0  9990,2 52705  53.2187 305.7122 0001280  93.6571 266.4568 15.08839913108697,6917.881,95.438,540.631,538.86,0.0
52705.0,STARLINK-3844,PAYLOAD,2024-04-29 18:48:45,15.08846192,0.0001309,53.2189,301.8465,98.6137,261.5004,4.1753e-05,3.77e-06,0.0,0 STARLINK-3844,1 52705U 22053BB  24120.78385503  .00000377  00000-0  41753-4 0  9990,2 52705  53.2189 301.8465 0001309  98.6137 261.5004 15.08846192108396,6917.861,95.437,540.632,538.821,0.0
52705.0,STARLINK-3844,PAYLOAD,2024-04-29 21:59:31,15.08840963,0.0001245,53.2193,301.2508,104.5074,255.6056,0.00017353,2.475e-05,0.0,0 STARLINK-3844,1 52705U 22053BB  24120.91633504  .00002475  00000-0  17353-3 0  9991,2 52705  53.2193 301.2508 0001245 104.5074 255.6056 15.08840963108840,6917.877,95.437,540.604,538.881,0.0
52705.0,STARLINK-3844,PAYLOAD,2024-04-30 18:39:32,15.08842466,0.0001175,53.2186,297.3865,83.3168,276.7958,0.00023353,3.431e-05,0.0,0 STARLINK-3844,1 52705U 22053BB  24121.77745681  .00003431  00000-0  23353-3 0  9996,2 52705  53.2186 297.3865 0001175  83.3168 276.7958 15.08842466108545,6917.873,95.437,540.551,538.925,0.0
52705.0,STARLINK-3844,PAYLOAD,2024-04-30 21:50:18,15.08846877,0.0001125,53.2183,296.7916,79.5877,280.5242,0.00021151,3.081e-05,0.0,0 STARLINK-3844,1 52705U 22053BB  24121.90993478  .00003081  00000-0  21151-3 0  9995,2 52705  53.2183 296.7916 0001125  79.5877 280.5242 15.08846877108999,6917.859,95.437,540.503,538.946,0.0
52705.0,STARLINK-3844,PAYLOAD,2024-05-01 10:33:23,15.08843222,0.000117,53.2172,294.4138,80.538,279.5744,9.4406e-05,1.215e-05,0.0,0 STARLINK-3844,1 52705U 22053BB  24122.43985621  .00001215  00000-0  94406-4 0  9996,2 52705  53.2172 294.4138 0001170  80.5380 279.5744 15.08843222109075,6917.871,95.437,540.545,538.926,0.0
52705.0,STARLINK-3844,PAYLOAD,2024-05-01 18:30:18,15.08848172,0.0001019,53.2168,292.9287,86.7744,273.3364,1.0626e-05,-1.19e-06,0.0,0 STARLINK-3844,1 52705U 22053BB  24122.77105193 -.00000119  00000-0  10626-4 0  9996,2 52705  53.2168 292.9287 0001019  86.7744 273.3364 15.08848172109127,6917.855,95.437,540.425,539.015,0.0
52705.0,STARLINK-3844,PAYLOAD,2024-05-02 04:02:37,15.08850052,0.0001063,53.2177,291.1444,88.2182,271.8931,6.8168e-05,7.98e-06,0.0,0 STARLINK-3844,1 52705U 22053BB  24123.16849132  .00000798  00000-0  68168-4 0  9994,2 52705  53.2177 291.1444 0001063  88.2182 271.8931 15.08850052108756,6917.85,95.437,540.45,538.979,0.0
52705.0,STARLINK-3844,PAYLOAD,2024-05-02 11:59:34,15.08829178,0.0001774,53.2175,289.6559,117.8853,242.2319,2.8705e-05,1.69e-06,0.0,0 STARLINK-3844,1 52705U 22053BB  24123.49970486  .00000169  00000-0  28705-4 0  9992,2 52705  53.2175 289.6559 0001774 117.8853 242.2319 15.08829178108809,6917.913,95.438,541.006,538.551,0.0
52705.0,STARLINK-3844,PAYLOAD,2024-05-02 15:10:20,15.08836251,0.0001316,53.2175,289.0609,86.2718,273.8425,-5.1443e-05,-1.106e-05,0.0,0 STARLINK-3844,1 52705U 22053BB  24123.63218393 -.00001106  00000-0 -51443-4 0  9999,2 52705  53.2175 289.0609 0001316  86.2718 273.8425 15.08836251109258,6917.892,95.438,540.667,538.846,0.0
52705.0,STARLINK-3844,PAYLOAD,2024-05-02 19:56:29,15.08840847,0.0001296,53.2185,288.168,81.3892,278.7247,4.6817e-06,-2.13e-06,0.0,0 STARLINK-3844,1 52705U 22053BB  24123.83089965 -.00000213  00000-0  46817-5 0  9999,2 52705  53.2185 288.1680 0001296  81.3892 278.7247 15.08840847108851,6917.878,95.438,540.639,538.846,0.0
52705.0,STARLINK-3844,PAYLOAD,2024-05-03 15:01:06,15.08852152,0.0001539,53.217,284.6,89.2239,270.893,0.00015741,2.219e-05,0.0,0 STARLINK-3844,1 52705U 22053BB  24124.62576847  .00002219  00000-0  15741-3 0  9994,2 52705  53.2170 284.6000 0001539  89.2239 270.8930 15.08852152109400,6917.843,95.437,540.773,538.644,0.0
52705.0,STARLINK-3844,PAYLOAD,2024-05-03 19:47:15,15.08857147,0.0001421,53.2168,283.7077,87.4966,272.6188,0.00036947,5.6e-05,0.0,0 STARLINK-3844,1 52705U 22053BB  24124.82448721  .00005600  00000-0  36947-3 0  9993,2 52705  53.2168 283.7077 0001421  87.4966 272.6188 15.08857147109008,6917.828,95.436,540.676,538.71,0.0
52705.0,STARLINK-3844,PAYLOAD,2024-05-04 03:44:12,15.08838021,0.0001643,53.2172,282.2226,79.6658,280.4519,4.8458e-05,4.83e-06,0.0,0 STARLINK-3844,1 52705U 22053BB  24125.15569529  .00000483  00000-0  48458-4 0  9995,2 52705  53.2172 282.2226 0001643  79.6658 280.4519 15.08838021109050,6917.886,95.438,540.888,538.615,0.0
52705.0,STARLINK-3844,PAYLOAD,2024-05-04 16:27:17,15.08826182,0.0001098,53.2151,279.8438,78.3398,281.7717,-0.0001524,-2.711e-05,0.0,0 STARLINK-3844,1 52705U 22053BB  24125.68562110 -.00002711  00000-0 -15240-3 0  9992,2 52705  53.2151 279.8438 0001098  78.3398 281.7717 15.08826182109133,6917.923,95.438,540.547,539.028,0.0
52705.0,STARLINK-3844,PAYLOAD,2024-05-05 03:34:59,15.0883843,0.0001272,53.2161,277.761,76.4099,283.7035,0.00023403,3.438e-05,0.0,0 STARLINK-3844,1 52705U 22053BB  24126.14930162  .00003438  00000-0  23403-3 0  9995,2 52705  53.2161 277.7610 0001272  76.4099 283.7035 15.08838430109206,6917.885,95.438,540.63,538.87,0.0
52705.0,STARLINK-3844,PAYLOAD,2024-05-05 14:42:41,15.0885154,0.000131,53.2158,275.6805,66.925,293.188,0.0010905,0.00017115,0.0,0 STARLINK-3844,1 52705U 22053BB  24126.61298282  .00017115  00000-0  10905-2 0  9996,2 52705  53.2158 275.6805 0001310  66.9250 293.1880 15.08851540109706,6917.845,95.437,540.616,538.804,0.0
52705.0,STARLINK-3844,PAYLOAD,2024-05-05 16:18:04,15.08856624,0.0001313,53.2163,275.3835,65.5786,294.5343,0.0012437,0.0001957,0.0,0 STARLINK-3844,1 52705U 22053BB  24126.67922219  .00019570  00000-0  12437-2 0  9995,2 52705  53.2163 275.3835 0001313  65.5786 294.5343 15.08856624109712,6917.83,95.437,540.603,538.786,0.0
52705.0,STARLINK-3844,PAYLOAD,2024-05-06 12:58:05,15.08854655,0.0001607,53.2165,271.516,89.3312,270.7865,0.00060666,9.384e-05,0.0,0 STARLINK-3844,1 52705U 22053BB  24127.54034021  .00009384  00000-0  60666-3 0  9997,2 52705  53.2165 271.5160 0001607  89.3312 270.7865 15.08854655109412,6917.836,95.437,540.812,538.589,0.0
